NORAD_CAT_ID,OBJECT_NAME,OBJECT_TYPE,EPOCH,MEAN_MOTION,ECCENTRICITY,INCLINATION,RA_OF_ASC_NODE,ARG_OF_PERICENTER,MEAN_ANOMALY,BSTAR,MEAN_MOTION_DOT,MEAN_MOTION_DDOT,TLE_LINE0,TLE_LINE1,TLE_LINE2,SEMIMAJOR_AXIS,PERIOD,APOGEE,PERIGEE,DECAYED
55644.0,STARLINK-5502,PAYLOAD,2023-11-13 20:45:00,14.98301663,0.0001865,70.0027,159.6697,247.4942,112.602,-0.00010727,-1.371e-05,0.0,0 STARLINK-5502,1 55644U 23021S   23317.86458655 -.00001371  00000-0 -10727-3 0  9999,2 55644  70.0027 159.6697 0001865 247.4942 112.6020 14.98301663 41645,6950.281,96.109,573.442,570.849,0.0
55644.0,STARLINK-5502,PAYLOAD,2023-11-14 12:46:19,14.98333392,0.0002789,69.9999,157.9846,271.6167,88.4673,6.7699e-05,7.15e-06,0.0,0 STARLINK-5502,1 55644U 23021S   23318.53216584  .00000715  00000-0  67699-4 0  9997,2 55644  69.9999 157.9846 0002789 271.6167  88.4673 14.98333392 42044,6950.182,96.107,573.986,570.109,0.0
55644.0,STARLINK-5502,PAYLOAD,2023-11-14 23:59:15,14.98331229,0.0003061,69.9997,156.8031,284.4183,75.6636,8.5001e-05,9.21e-06,0.0,0 STARLINK-5502,1 55644U 23021S   23318.99948790  .00000921  00000-0  85001-4 0  9994,2 55644  69.9997 156.8031 0003061 284.4183  75.6636 14.98331229 42112,6950.189,96.107,574.182,569.927,0.0
55644.0,STARLINK-5502,PAYLOAD,2023-11-15 19:12:52,14.98332829,0.000301,69.9964,154.7858,270.2734,89.808,5.9476e-06,-2.2e-07,0.0,0 STARLINK-5502,1 55644U 23021S   23319.80061303 -.00000022  00000-0  59476-5 0  9992,2 55644  69.9964 154.7858 0003010 270.2734  89.8080 14.98332829 41935,6950.184,96.107,574.141,569.957,0.0
55644.0,STARLINK-5502,PAYLOAD,2023-11-16 00:01:17,14.98327931,0.0003107,69.9997,154.2824,269.7225,90.3578,-5.3458e-05,-7.31e-06,0.0,0 STARLINK-5502,1 55644U 23021S   23320.00089767 -.00000731  00000-0 -53458-4 0  9991,2 55644  69.9997 154.2824 0003107 269.7225  90.3578 14.98327931 41964,6950.199,96.107,574.224,569.905,0.0
55644.0,STARLINK-5502,PAYLOAD,2023-11-16 19:14:54,14.98331526,0.0003466,69.9942,152.2618,276.0309,84.0454,-6.3979e-05,-8.56e-06,0.0,0 STARLINK-5502,1 55644U 23021S   23320.80201475 -.00000856  00000-0 -63979-4 0  9998,2 55644  69.9942 152.2618 0003466 276.0309  84.0454 14.98331526 42380,6950.188,96.107,574.462,569.644,0.0
55644.0,STARLINK-5502,PAYLOAD,2023-11-17 06:27:49,14.98358706,0.0003311,69.9994,151.0848,278.1534,81.925,-0.00034133,-4.166e-05,0.0,0 STARLINK-5502,1 55644U 23021S   23321.26932375 -.00004166  00000-0 -34133-3 0  9996,2 55644  69.9994 151.0848 0003311 278.1534  81.9250 14.98358706 42155,6950.104,96.105,574.27,569.668,0.0
55644.0,STARLINK-5502,PAYLOAD,2023-11-17 12:52:22,14.9830993,0.0002952,70.0002,150.4101,275.1184,84.9638,0.00040595,4.752e-05,0.0,0 STARLINK-5502,1 55644U 23021S   23321.53636772  .00004752  00000-0  40595-3 0  9996,2 55644  70.0002 150.4101 0002952 275.1184  84.9638 14.98309930 42496,6950.255,96.108,574.172,570.068,0.0
55644.0,STARLINK-5502,PAYLOAD,2023-11-17 19:16:54,14.98320016,0.0002885,70.0007,149.7371,274.2878,85.7952,0.00029019,3.37e-05,0.0,0 STARLINK-5502,1 55644U 23021S   23321.80340830  .00003370  00000-0  29019-3 0  9996,2 55644  70.0007 149.7371 0002885 274.2878  85.7952 14.98320016 42234,6950.224,96.108,574.094,570.084,0.0
55644.0,STARLINK-5502,PAYLOAD,2023-11-17 22:29:10,14.98322846,0.0002499,70.002,149.4003,273.0218,87.0655,0.0002478,2.864e-05,0.0,0 STARLINK-5502,1 55644U 23021S   23321.93692957  .00002864  00000-0  24780-3 0  9997,2 55644  70.0020 149.4003 0002499 273.0218  87.0655 14.98322846 42557,6950.215,96.107,573.817,570.343,0.0
55644.0,STARLINK-5502,PAYLOAD,2023-11-18 12:54:22,14.98317986,0.0002435,69.9997,147.8854,277.4124,82.6758,0.000331,3.857e-05,0.0,0 STARLINK-5502,1 55644U 23021S   23322.53776376  .00003857  00000-0  33100-3 0  9991,2 55644  69.9997 147.8854 0002435 277.4124  82.6758 14.98317986 42641,6950.23,96.108,573.787,570.403,0.0
55644.0,STARLINK-5502,PAYLOAD,2023-11-18 19:18:54,14.98330705,0.0002886,69.9988,147.2121,275.6638,84.4192,0.00017278,1.969e-05,0.0,0 STARLINK-5502,1 55644U 23021S   23322.80480207  .00001969  00000-0  17278-3 0  9996,2 55644  69.9988 147.2121 0002886 275.6638  84.4192 14.98330705 42389,6950.191,96.107,574.062,570.05,0.0
55644.0,STARLINK-5502,PAYLOAD,2023-11-18 22:31:10,14.98339219,0.0002926,69.9985,146.8754,274.7711,85.3114,4.6417e-05,4.61e-06,0.0,0 STARLINK-5502,1 55644U 23021S   23322.93832017  .00000461  00000-0  46417-4 0  9994,2 55644  69.9985 146.8754 0002926 274.7711  85.3114 14.98339219 42709,6950.164,96.106,574.063,569.996,0.0
55644.0,STARLINK-5502,PAYLOAD,2023-11-19 12:56:22,14.98341507,0.0002922,69.9989,145.3605,275.0059,85.0766,3.6305e-05,3.4e-06,0.0,0 STARLINK-5502,1 55644U 23021S   23323.53915486  .00000340  00000-0  36305-4 0  9994,2 55644  69.9989 145.3605 0002922 275.0059  85.0766 14.98341507 42799,6950.157,96.106,574.053,569.991,0.0
55644.0,STARLINK-5502,PAYLOAD,2023-11-19 19:20:54,14.98343487,0.0002935,69.9989,144.6872,275.142,84.9404,4.6173e-05,4.58e-06,0.0,0 STARLINK-5502,1 55644U 23021S   23323.80619109  .00000458  00000-0  46173-4 0  9991,2 55644  69.9989 144.6872 0002935 275.1420  84.9404 14.98343487 42532,6950.151,96.106,574.056,569.976,0.0
55644.0,STARLINK-5502,PAYLOAD,2023-11-19 22:33:10,14.98343658,0.0002928,69.9988,144.3505,275.2064,84.876,4.665e-05,4.64e-06,0.0,0 STARLINK-5502,1 55644U 23021S   23323.93970973  .00000464  00000-0  46650-4 0  9991,2 55644  69.9988 144.3505 0002928 275.2064  84.8760 14.98343658 42857,6950.151,96.106,574.051,569.981,0.0
55644.0,STARLINK-5502,PAYLOAD,2023-11-20 04:57:43,14.98337669,0.0002887,69.9988,143.6771,275.4912,84.5918,-8.2722e-06,-1.92e-06,0.0,0 STARLINK-5502,1 55644U 23021S   23324.20675287 -.00000192  00000-0 -82722-5 0  9993,2 55644  69.9988 143.6771 0002887 275.4912  84.5918 14.98337669 42590,6950.169,96.107,574.041,570.028,0.0
55644.0,STARLINK-5502,PAYLOAD,2023-11-20 14:34:31,14.98336715,0.0002842,69.9989,142.6673,275.6387,84.4447,-5.7113e-05,-7.74e-06,0.0,0 STARLINK-5502,1 55644U 23021S   23324.60731270 -.00000774  00000-0 -57113-4 0  9993,2 55644  69.9989 142.6673 0002842 275.6387  84.4447 14.98336715 42957,6950.172,96.107,574.012,570.062,0.0
55644.0,STARLINK-5502,PAYLOAD,2023-11-20 20:59:03,14.98336668,0.0002856,69.999,141.9942,274.9293,85.154,-4.615e-05,-6.44e-06,0.0,0 STARLINK-5502,1 55644U 23021S   23324.87435093 -.00000644  00000-0 -46150-4 0  9991,2 55644  69.9990 141.9942 0002856 274.9293  85.1540 14.98336668 42996,6950.172,96.107,574.022,570.052,0.0
55644.0,STARLINK-5502,PAYLOAD,2023-11-21 11:24:16,14.98335903,0.0002826,69.999,140.4793,274.3033,85.7803,-8.7446e-05,-1.136e-05,0.0,0 STARLINK-5502,1 55644U 23021S   23325.47518990 -.00001136  00000-0 -87446-4 0  9996,2 55644  69.9990 140.4793 0002826 274.3033  85.7803 14.98335903 42783,6950.175,96.107,574.004,570.076,0.0
55644.0,STARLINK-5502,PAYLOAD,2023-11-21 13:00:24,14.98335828,0.000283,69.999,140.3109,274.1783,85.9052,-8.6336e-05,-1.123e-05,0.0,0 STARLINK-5502,1 55644U 23021S   23325.54194960 -.00001123  00000-0 -86336-4 0  9994,2 55644  69.9990 140.3109 0002830 274.1783  85.9052 14.98335828 43097,6950.175,96.107,574.007,570.073,0.0
55644.0,STARLINK-5502,PAYLOAD,2023-11-21 21:01:04,14.98336051,0.0002886,69.9988,139.4691,274.7424,85.3406,-7.5508e-05,-9.94e-06,0.0,0 STARLINK-5502,1 55644U 23021S   23325.87574790 -.00000994  00000-0 -75508-4 0  9997,2 55644  69.9988 139.4691 0002886 274.7424  85.3406 14.98336051 43140,6950.174,96.107,574.045,570.033,0.0
55644.0,STARLINK-5502,PAYLOAD,2023-11-22 11:26:17,14.98333028,0.0002918,69.9987,137.9545,274.0216,86.061,-7.7085e-06,-1.85e-06,0.0,0 STARLINK-5502,1 55644U 23021S   23326.47658584 -.00000185  00000-0 -77085-5 0  9993,2 55644  69.9987 137.9545 0002918 274.0216  86.0610 14.98333028 42930,6950.184,96.107,574.077,570.02,0.0
55644.0,STARLINK-5502,PAYLOAD,2023-11-22 14:38:33,14.98332892,0.0002922,69.9987,137.6175,273.5571,86.5253,2.4375e-05,1.98e-06,0.0,0 STARLINK-5502,1 55644U 23021S   23326.61010473  .00000198  00000-0  24375-4 0  9993,2 55644  69.9987 137.6175 0002922 273.5571  86.5253 14.98332892 43251,6950.184,96.107,574.08,570.018,0.0
55644.0,STARLINK-5502,PAYLOAD,2023-11-22 21:03:05,14.98335409,0.0002923,69.9988,136.9441,273.4017,86.6807,3.2318e-05,2.93e-06,0.0,0 STARLINK-5502,1 55644U 23021S   23326.87714219  .00000293  00000-0  32318-4 0  9992,2 55644  69.9988 136.9441 0002923 273.4017  86.6807 14.98335409 43292,6950.176,96.107,574.073,570.01,0.0
55644.0,STARLINK-5502,PAYLOAD,2023-11-23 11:28:18,14.98323553,0.0002877,69.9988,135.4289,272.948,87.135,-4.6458e-05,-6.47e-06,0.0,0 STARLINK-5502,1 55644U 23021S   23327.47799172 -.00000647  00000-0 -46458-4 0  9995,2 55644  69.9988 135.4289 0002877 272.9480  87.1350 14.98323553 43085,6950.213,96.107,574.077,570.078,0.0
55644.0,STARLINK-5502,PAYLOAD,2023-11-23 14:40:34,14.98323405,0.0002886,69.9988,135.0922,272.6525,87.4304,-4.4244e-05,-6.21e-06,0.0,0 STARLINK-5502,1 55644U 23021S   23327.61151208 -.00000621  00000-0 -44244-4 0  9996,2 55644  69.9988 135.0922 0002886 272.6525  87.4304 14.98323405 43406,6950.213,96.107,574.084,570.072,0.0
55644.0,STARLINK-5502,PAYLOAD,2023-11-23 21:05:06,14.9832433,0.0002855,69.9989,134.4182,270.5821,89.5011,-4.7622e-05,-6.61e-06,0.0,0 STARLINK-5502,1 55644U 23021S   23327.87855229 -.00000661  00000-0 -47622-4 0  9995,2 55644  69.9989 134.4182 0002855 270.5821  89.5011 14.98324330 43440,6950.21,96.107,574.06,570.091,0.0
55644.0,STARLINK-5502,PAYLOAD,2023-11-24 11:30:19,14.98331245,0.0002777,69.9994,132.9041,269.0892,90.9949,-2.4531e-05,-3.86e-06,0.0,0 STARLINK-5502,1 55644U 23021S   23328.47938818 -.00000386  00000-0 -24531-4 0  9996,2 55644  69.9994 132.9041 0002777 269.0892  90.9949 14.98331245 43233,6950.189,96.107,573.984,570.124,0.0
55644.0,STARLINK-5502,PAYLOAD,2023-11-24 14:42:35,14.98330738,0.0002791,69.9993,132.5675,269.2325,90.8514,-2.8794e-05,-4.37e-06,0.0,0 STARLINK-5502,1 55644U 23021S   23328.61290853 -.00000437  00000-0 -28794-4 0  9994,2 55644  69.9993 132.5675 0002791 269.2325  90.8514 14.98330738 43558,6950.191,96.107,573.995,570.116,0.0
